[{"OBJECT_NAME":"COSMOS 2493 (SKRL-756 1)","OBJECT_ID":"2013-078A","EPOCH":"2026-03-09T21:08:46.717728","MEAN_MOTION":15.01584319,"ECCENTRICITY":0.00118545,"INCLINATION":82.4165,"RA_OF_ASC_NODE":358.3033,"ARG_OF_PERICENTER":214.7485,"MEAN_ANOMALY":145.2966,"EPHEMERIS_TYPE":0,"CLASSIFICATION_TYPE":"U","NORAD_CAT_ID":39490,"ELEMENT_SET_NO":999,"REV_AT_EPOCH":66305,"BSTAR":0.00040276291,"MEAN_MOTION_DOT":5.252e-5,"MEAN_MOTION_DDOT":0},{"OBJECT_NAME":"STARLINK-30366","OBJECT_ID":"2023-131T","EPOCH":"2026-03-09T07:38:57.876288","MEAN_MOTION":15.02782844,"ECCENTRICITY":0.00016492,"INCLINATION":42.9994,"RA_OF_ASC_NODE":173.3496,"ARG_OF_PERICENTER":272.4475,"MEAN_ANOMALY":87.6179,"EPHEMERIS_TYPE":0,"CLASSIFICATION_TYPE":"U","NORAD_CAT_ID":57749,"ELEMENT_SET_NO":999,"REV_AT_EPOCH":13987,"BSTAR":0.00073504107,"MEAN_MOTION_DOT":9.804e-5,"MEAN_MOTION_DDOT":0}]
