COSMOS 2493 (SKRL-756 1)
1 39490U 13078A   26068.88109627  .00005252  00000+0  40276-3 0  9992
2 39490  82.4165 358.3033 0011855 214.7485 145.2966 15.01584319663059
STARLINK-30366          
1 57749U 23131T   26068.31872542  .00009804  00000+0  73504-3 0  9998
2 57749  42.9994 173.3496 0001649 272.4475  87.6179 15.02782844139872
